STARLINK-4776           
1 53837U 22114V   26068.87612274 -.00002766  00000+0 -15585-3 0  9994
2 53837  53.2184 302.9943 0001436  88.7474 271.3683 15.08823289192865
ADRAS-J                 
1 58992U 24034A   26068.91589465  .00004016  00000+0  21471-3 0  9993
2 58992  98.2230  88.3954 0075813  99.4078 261.5731 15.13266815112352
